{
  "type": "FeatureCollection",
  "features": [
    {
      "type": "Feature",
      "properties": {
        "norad_id": 66753,
        "name": "ICEYE-X60",
        "group": "last-30-days",
        "lat": 55.57930489598761,
        "lon": -97.20085648738025,
        "alt_km": 508.8549167614801,
        "timestamp": "2025-12-26T06:43:28.233428+00:00",
        "meta_object_name": "ICEYE-X60",
        "meta_object_id": "2025-276CR",
        "meta_epoch": "2025-12-25T22:16:05.356992",
        "meta_mean_motion": 15.17409735,
        "meta_eccentricity": 0.00011067,
        "meta_inclination": 97.4403,
        "meta_ra_of_asc_node": 71.4588,
        "meta_arg_of_pericenter": 250.9927,
        "meta_mean_anomaly": 109.1187,
        "meta_ephemeris_type": 0,
        "meta_classification_type": "U",
        "meta_norad_cat_id": 66753,
        "meta_element_set_no": 999,
        "meta_rev_at_epoch": 412,
        "meta_bstar": 0.00026308372,
        "meta_mean_motion_dot": 5.193e-05,
        "meta_mean_motion_ddot": 0,
        "tle_line1": "1 66753U 25276CR  25359.92783978  .00005193  00000+0  26308-3 0  9995",
        "tle_line2": "2 66753  97.4403  71.4588 0001106 250.9927 109.1187 15.17409735  4127"
      },
      "geometry": {
        "type": "Point",
        "coordinates": [
          -97.20085648738025,
          55.57930489598761
        ]
      }
    },
    {
      "type": "Feature",
      "properties": {
        "norad_id": 66754,
        "name": "ICEYE-X61",
        "group": "last-30-days",
        "lat": 8.618021903123532,
        "lon": -107.0414226025106,
        "alt_km": 512.4120725227631,
        "timestamp": "2025-12-26T06:43:28.233438+00:00",
        "meta_object_name": "ICEYE-X61",
        "meta_object_id": "2025-276CS",
        "meta_epoch": "2025-12-25T22:03:42.624576",
        "meta_mean_motion": 15.17872264,
        "meta_eccentricity": 0.00025562,
        "meta_inclination": 97.4399,
        "meta_ra_of_asc_node": 71.469,
        "meta_arg_of_pericenter": 180.8603,
        "meta_mean_anomaly": 179.2627,
        "meta_ephemeris_type": 0,
        "meta_classification_type": "U",
        "meta_norad_cat_id": 66754,
        "meta_element_set_no": 999,
        "meta_rev_at_epoch": 412,
        "meta_bstar": 0.00025215591,
        "meta_mean_motion_dot": 5.042e-05,
        "meta_mean_motion_ddot": 0,
        "tle_line1": "1 66754U 25276CS  25359.91924334  .00005042  00000+0  25216-3 0  9998",
        "tle_line2": "2 66754  97.4399  71.4690 0002556 180.8603 179.2627 15.17872264  4126"
      },
      "geometry": {
        "type": "Point",
        "coordinates": [
          -107.0414226025106,
          8.618021903123532
        ]
      }
    },
    {
      "type": "Feature",
      "properties": {
        "norad_id": 66755,
        "name": "ICEYE-X62",
        "group": "last-30-days",
        "lat": 34.013955729198436,
        "lon": -103.127443527262,
        "alt_km": 510.38478792008937,
        "timestamp": "2025-12-26T06:43:28.233454+00:00",
        "meta_object_name": "ICEYE-X62",
        "meta_object_id": "2025-276CT",
        "meta_epoch": "2025-12-25T22:00:01.999584",
        "meta_mean_motion": 15.17664727,
        "meta_eccentricity": 0.00011572,
        "meta_inclination": 97.4403,
        "meta_ra_of_asc_node": 71.4557,
        "meta_arg_of_pericenter": 200.467,
        "meta_mean_anomaly": 120.3758,
        "meta_ephemeris_type": 0,
        "meta_classification_type": "U",
        "meta_norad_cat_id": 66755,
        "meta_element_set_no": 999,
        "meta_rev_at_epoch": 512,
        "meta_bstar": -0.0012207773,
        "meta_mean_motion_dot": -0.00024547,
        "meta_mean_motion_ddot": 0,
        "tle_line1": "1 66755U 25276CT  25359.91668981 -.00024547  00000+0 -12208-2 0  9991",
        "tle_line2": "2 66755  97.4403  71.4557 0001157 200.4670 120.3758 15.17664727  5120"
      },
      "geometry": {
        "type": "Point",
        "coordinates": [
          -103.127443527262,
          34.013955729198436
        ]
      }
    },
    {
      "type": "Feature",
      "properties": {
        "norad_id": 66756,
        "name": "TRANSPORTER-15CU",
        "group": "last-30-days",
        "lat": 1.5914221724471846,
        "lon": -107.96125977782216,
        "alt_km": 513.7309856509792,
        "timestamp": "2025-12-26T06:43:28.233463+00:00",
        "meta_object_name": "TRANSPORTER-15CU",
        "meta_object_id": "2025-276CU",
        "meta_epoch": "2025-12-25T22:01:53.126400",
        "meta_mean_motion": 15.17978043,
        "meta_eccentricity": 0.00018018,
        "meta_inclination": 97.4407,
        "meta_ra_of_asc_node": 71.4746,
        "meta_arg_of_pericenter": 150.358,
        "meta_mean_anomaly": 209.7756,
        "meta_ephemeris_type": 0,
        "meta_classification_type": "U",
        "meta_norad_cat_id": 66756,
        "meta_element_set_no": 999,
        "meta_rev_at_epoch": 412,
        "meta_bstar": 0.00029832467,
        "meta_mean_motion_dot": 5.996e-05,
        "meta_mean_motion_ddot": 0,
        "tle_line1": "1 66756U 25276CU  25359.91797600  .00005996  00000+0  29832-3 0  9990",
        "tle_line2": "2 66756  97.4407  71.4746 0001801 150.3580 209.7756 15.17978043  4122"
      },
      "geometry": {
        "type": "Point",
        "coordinates": [
          -107.96125977782216,
          1.5914221724471846
        ]
      }
    },
    {
      "type": "Feature",
      "properties": {
        "norad_id": 66757,
        "name": "TRANSPORTER-15CV",
        "group": "last-30-days",
        "lat": -7.3844622632136625,
        "lon": -109.13229573985689,
        "alt_km": 515.6423108936478,
        "timestamp": "2025-12-26T06:43:28.233476+00:00",
        "meta_object_name": "TRANSPORTER-15CV",
        "meta_object_id": "2025-276CV",
        "meta_epoch": "2025-12-25T21:59:32.612352",
        "meta_mean_motion": 15.18105386,
        "meta_eccentricity": 4.233e-05,
        "meta_inclination": 97.4415,
        "meta_ra_of_asc_node": 71.4805,
        "meta_arg_of_pericenter": 64.6544,
        "meta_mean_anomaly": 295.4734,
        "meta_ephemeris_type": 0,
        "meta_classification_type": "U",
        "meta_norad_cat_id": 66757,
        "meta_element_set_no": 999,
        "meta_rev_at_epoch": 412,
        "meta_bstar": 0.0018455706,
        "meta_mean_motion_dot": 0.00037735,
        "meta_mean_motion_ddot": 0,
        "tle_line1": "1 66757U 25276CV  25359.91634968  .00037735  00000+0  18456-2 0  9993",
        "tle_line2": "2 66757  97.4415  71.4805 0000423  64.6544 295.4734 15.18105386  4125"
      },
      "geometry": {
        "type": "Point",
        "coordinates": [
          -109.13229573985689,
          -7.3844622632136625
        ]
      }
    },
    {
      "type": "Feature",
      "properties": {
        "norad_id": 66758,
        "name": "TRANSPORTER-15CW",
        "group": "last-30-days",
        "lat": -9.035269801783727,
        "lon": -109.36268609158243,
        "alt_km": 515.1122466828328,
        "timestamp": "2025-12-26T06:43:28.233489+00:00",
        "meta_object_name": "TRANSPORTER-15CW",
        "meta_object_id": "2025-276CW",
        "meta_epoch": "2025-12-25T21:59:06.436608",
        "meta_mean_motion": 15.18110496,
        "meta_eccentricity": 0.00015451,
        "meta_inclination": 97.4386,
        "meta_ra_of_asc_node": 71.4698,
        "meta_arg_of_pericenter": 135.0257,
        "meta_mean_anomaly": 225.1103,
        "meta_ephemeris_type": 0,
        "meta_classification_type": "U",
        "meta_norad_cat_id": 66758,
        "meta_element_set_no": 999,
        "meta_rev_at_epoch": 412,
        "meta_bstar": 0.0003237294,
        "meta_mean_motion_dot": 6.537e-05,
        "meta_mean_motion_ddot": 0,
        "tle_line1": "1 66758U 25276CW  25359.91604672  .00006537  00000+0  32373-3 0  9994",
        "tle_line2": "2 66758  97.4386  71.4698 0001545 135.0257 225.1103 15.18110496  4121"
      },
      "geometry": {
        "type": "Point",
        "coordinates": [
          -109.36268609158243,
          -9.035269801783727
        ]
      }
    },
    {
      "type": "Feature",
      "properties": {
        "norad_id": 66759,
        "name": "TRANSPORTER-15CX",
        "group": "last-30-days",
        "lat": -20.222040478502084,
        "lon": -110.92591588595587,
        "alt_km": 513.254806449494,
        "timestamp": "2025-12-26T06:43:28.233499+00:00",
        "meta_object_name": "TRANSPORTER-15CX",
        "meta_object_id": "2025-276CX",
        "meta_epoch": "2025-12-25T21:56:17.249856",
        "meta_mean_motion": 15.18503633,
        "meta_eccentricity": 0.00033655,
        "meta_inclination": 97.44,
        "meta_ra_of_asc_node": 71.473,
        "meta_arg_of_pericenter": 170.6881,
        "meta_mean_anomaly": 189.4417,
        "meta_ephemeris_type": 0,
        "meta_classification_type": "U",
        "meta_norad_cat_id": 66759,
        "meta_element_set_no": 999,
        "meta_rev_at_epoch": 412,
        "meta_bstar": 0.0085258186,
        "meta_mean_motion_dot": 0.00180064,
        "meta_mean_motion_ddot": 0,
        "tle_line1": "1 66759U 25276CX  25359.91408854  .00180064  00000+0  85258-2 0  9996",
        "tle_line2": "2 66759  97.4400  71.4730 0003365 170.6881 189.4417 15.18503633  4125"
      },
      "geometry": {
        "type": "Point",
        "coordinates": [
          -110.92591588595587,
          -20.222040478502084
        ]
      }
    }
  ]
}